satname,norad_id,inclination_deg,eccentricity,mean_motion_rev_per_day,perigee_km,apogee_km,l1,l2
STARLINK-1273,45367,53.0514,0.0001381,15.06404856,546.2402864571268,548.1530636181724,1 45367U 20019H   25281.31532761  .00002492  00000+0  18609-3 0  9996,2 45367  53.0514 130.6536 0001381  92.7148 267.3999 15.06404856306769
STARLINK-1276,45368,53.0542,0.0001314,15.06395211,546.3162428432652,548.1362283015733,1 45368U 20019J   25281.55122730  .00001324  00000+0  10779-3 0  9997,2 45368  53.0542 129.5969 0001314  94.2868 265.8271 15.06395211306805
STARLINK-1277,45369,53.051,0.000174,15.06399396,546.0083981407188,548.4184200830887,1 45369U 20019K   25281.87566411  .00001038  00000+0  88608-4 0  9990,2 45369  53.0510 128.7664 0001740  93.5941 266.5247 15.06399396306844
STARLINK-1281,45370,53.0539,0.0001774,15.06406393,545.9634110250508,548.4205177416152,1 45370U 20019L   25281.60651014  .00002349  00000+0  17654-3 0  9995,2 45370  53.0539 129.3494 0001774 297.9707  62.1102 15.06406393306815
STARLINK-1300,45374,53.0537,0.0001185,15.06395459,546.4048200308698,548.0461309375596,1 45374U 20019Q   25281.76132811  .00001477  00000+0  11804-3 0  9997,2 45374  53.0537 128.6499 0001185  93.5623 266.5501 15.06395459306832
STARLINK-1302,45375,53.0518,0.0001428,15.06404103,546.2100448844076,548.1879208411137,1 45375U 20019R   25280.97990107  .00002435  00000+0  18226-3 0  9990,2 45375  53.0518 132.1609 0001428  93.6983 266.4169 15.06404103306718
STARLINK-1304,45376,53.051,0.0001457,15.06408438,546.1766772873643,548.1947163212126,1 45376U 20019S   25280.99833678  .00003417  00000+0  24809-3 0  9997,2 45376  53.0510 132.0765 0001457  91.9298 268.1858 15.06408438306714
STARLINK-1305,45377,53.0521,0.0001311,15.06409617,546.2741740433557,548.0899927070159,1 45377U 20019T   25281.28953421  .00008207  00000+0  56905-3 0  9994,2 45377  53.0521 130.7673 0001311  89.2934 270.8206 15.06409617306768
STARLINK-1319,45379,53.0545,0.0001504,15.06396942,546.1793564509853,548.2625041164156,1 45379U 20019V   25281.87927390  .00001806  00000+0  14010-3 0  9996,2 45379  53.0545 128.1246 0001504  87.1094 273.0067 15.06396942306857
STARLINK-1266,45383,53.0536,0.0001085,15.06366504,546.562808798888,548.0656317136845,1 45383U 20019Z   25281.54938830  .00007291  00000+0  50827-3 0  9996,2 45383  53.0536 109.6066 0001085  96.1940 263.9173 15.06366504307072
STARLINK-1267,45384,53.0543,0.0001364,15.06398396,546.2718557577718,548.1610921854708,1 45384U 20019AA  25281.26933105  .00001376  00000+0  11124-3 0  9991,2 45384  53.0543 111.5176 0001364  86.0419 274.0726 15.06398396307020
STARLINK-1272,45386,53.0523,0.000147,15.06398239,546.1989281234974,548.2349821863118,1 45386U 20019AC  25281.54200759  .00001854  00000+0  14336-3 0  9995,2 45386  53.0523 109.6363 0001470  94.9247 265.1910 15.06398239307078
STARLINK-1274,45387,53.0372,0.0007414,15.26726965,480.5158009368952,490.6933569501516,1 45387U 20019AD  25281.75967505  .00081058  00000+0  30214-2 0  9994,2 45387  53.0372  97.3779 0007414 137.5990 222.5582 15.26726965307264
STARLINK-1280,45388,53.0525,0.0001395,15.06408728,546.2187256122788,548.1508903967124,1 45388U 20019AE  25280.93567852  .00004419  00000+0  31532-3 0  9996,2 45388  53.0525 132.3586 0001395  87.9657 272.1492 15.06408728306690
STARLINK-1283,45389,53.0537,3.85e-05,15.16087212,517.4143611171421,517.9453390145973,1 45389U 20019AF  25281.82549775  .00553975  00000+0  26634-1 0  9991,2 45389  53.0537 108.1677 0000385 349.9417  10.1568 15.16087212307124
STARLINK-1284,45390,53.0552,0.0001663,15.06394491,546.0767540082416,548.3801305543448,1 45390U 20019AG  25281.75210889 -.00000819  00000+0 -36062-4 0  9991,2 45390  53.0552 108.6931 0001663  97.5566 262.5612 15.06394491307102
STARLINK-1292,45394,53.048,0.0004357,15.80522329,326.04024232407573,331.884808850672,1 45394U 20019AL  25281.16126759  .00276489  00000+0  13814-2 0  9996,2 45394  53.0480  75.0580 0004357 264.0113  96.0412 15.80522329307265
STARLINK-1297,45395,53.0539,0.0001696,15.06390506,546.0661117832842,548.4151998841426,1 45395U 20019AM  25281.25819385  .00000409  00000+0  46355-4 0  9996,2 45395  53.0539 110.9094 0001696  89.1548 270.9635 15.06390506306213
STARLINK-1307,45397,53.0583,0.0001534,15.06402495,546.1415638374101,548.2662584289465,1 45397U 20019AP  25281.25081785  .00000741  00000+0  68607-4 0  9996,2 45397  53.0583 110.9408 0001534  86.1356 273.9808 15.06402495306854
STARLINK-1312,45398,53.0441,0.0003461,15.80923131,325.5079356365277,330.14980521203506,1 45398U 20019AQ  25281.76771903  .00366565  00000+0  17785-2 0  9999,2 45398  53.0441  71.5807 0003461 185.6433 174.4550 15.80923131307380
STARLINK-1255,45399,53.0536,0.0001083,15.06388072,546.4980965735185,547.9981349895961,1 45399U 20019AR  25281.21857463 -.00003742  00000+0 -23254-3 0  9992,2 45399  53.0536 101.0881 0001083  99.2214 260.8898 15.06388072306978
STARLINK-1259,45403,53.0457,0.0001382,15.94974158,287.46507881486195,289.30770588050746,1 45403U 20019AV  25281.74420385  .00415767  80017-4  10540-2 0  9991,2 45403  53.0457  52.0189 0001382  68.5824 291.5350 15.94974158307709
STARLINK-1260,45404,53.0538,0.0001685,15.0639229,546.0682628649274,548.4021132923108,1 45404U 20019AW  25280.52193064  .00003774  00000+0  27219-3 0  9990,2 45404  53.0538 104.2163 0001685  65.9040 294.2125 15.06392290306779
STARLINK-1263,45405,53.0543,0.0001449,15.06392843,546.2300070148631,548.2369793837915,1 45405U 20019AX  25281.70143376  .00003248  00000+0  23686-3 0  9993,2 45405  53.0543  98.9213 0001449  90.2040 269.9115 15.06392843306952
STARLINK-1265,45406,53.0544,0.0001645,15.06404793,546.0576507012402,548.3360855438514,1 45406U 20019AY  25281.50975083  .00001270  00000+0  10416-3 0  9990,2 45406  53.0544  99.7808 0001645  92.2187 267.8991 15.06404793306929
STARLINK-1278,45408,53.0523,0.0001611,15.06415172,546.0493921721227,548.2807244953174,1 45408U 20019BA  25281.60281968  .00004157  00000+0  29766-3 0  9990,2 45408  53.0523 129.3647 0001611  83.1674 276.9498 15.06415172306524
STARLINK-1296,45412,53.0532,0.0001342,15.06399924,546.2824090596077,548.1411726750757,1 45412U 20019BE  25281.51343956  .00001099  00000+0  92656-4 0  9992,2 45412  53.0532  99.7634 0001342  91.1853 268.9290 15.06399924306925
STARLINK-1298,45413,53.0488,0.0009054,15.46972484,419.42838440893684,431.7485705035142,1 45413U 20019BF  25281.81019147  .00154665  00000+0  29621-2 0  9996,2 45413  53.0488  81.5441 0009054 179.0831 181.0194 15.46972484307304
STARLINK-1309,45414,53.0531,0.0001478,15.0639673,546.198012037311,548.2451480335694,1 45414U 20019BG  25281.85991961  .00000102  00000+0  25769-4 0  9991,2 45414  53.0531  98.2107 0001478  91.2798 268.8360 15.06396730306967
STARLINK-1316,45415,53.0539,0.000102,15.06391005,546.5327380900417,547.9455148198394,1 45415U 20019BH  25281.75303109 -.00000545  00000+0 -17693-4 0  9992,2 45415  53.0539  98.6871 0001020  93.7469 266.3637 15.06391005306985
STARLINK-1318,45416,53.0515,0.000139,15.57606594,393.64474233623423,395.5275593721708,1 45416U 20019BJ  25281.41662874  .00058405  00000+0  77773-3 0  9993,2 45416  53.0515  76.4763 0001390 324.4944  35.5975 15.57606594307256
STARLINK-1286,45417,53.0501,0.0001945,15.06412855,545.8251868633906,548.5191321264347,1 45417U 20019BK  25281.59175321  .00003774  00000+0  27202-3 0  9990,2 45417  53.0501 129.4118 0001945  91.9379 268.1833 15.06412855306793
STARLINK-1308,45419,53.0509,0.0001469,15.0640318,546.1844794419867,548.2191439848675,1 45419U 20019BM  25281.58808590  .00002970  00000+0  21818-3 0  9996,2 45419  53.0509 129.4302 0001469  83.8849 276.2307 15.06403180306541
STARLINK-1329,45531,53.0529,0.0001305,15.063985,546.312396639295,548.1199138128095,1 45531U 20025A   25281.75578522  .00000189  00000+0  31600-4 0  9997,2 45531  53.0529  68.6752 0001305  90.4713 269.6425 15.06398500302197
STARLINK-1338,45532,53.0542,0.0001378,15.06406851,546.2362505517176,548.1448708274438,1 45532U 20025B   25281.76685257  .00004181  00000+0  29937-3 0  9998,2 45532  53.0542  68.6228 0001378  85.1979 274.9168 15.06406851302198
STARLINK-1350,45535,53.0747,8.79e-05,15.31559878,470.5556704555511,471.7597764679358,1 45535U 20025E   25281.65043164  .00001191  00000+0  50352-4 0  9998,2 45535  53.0747  24.7700 0000879 114.8977 245.2115 15.31559878302828
STARLINK-1362,45538,53.054,0.0001017,15.06392395,546.5305559472172,547.9391765848159,1 45538U 20025H   25281.79904836  .00000716  00000+0  66974-4 0  9997,2 45538  53.0540  68.1981 0001017 104.3747 255.7355 15.06392395302204
STARLINK-1368,45540,53.0551,0.0001344,15.06390281,546.3105745840112,548.1721162832646,1 45540U 20025K   25281.80371145  .00000383  00000+0  44640-4 0  9999,2 45540  53.0551  68.4594 0001344  88.0483 272.0660 15.06390281302191
STARLINK-1371,45542,53.0544,0.000132,15.06395107,546.3124063299783,548.1407023083193,1 45542U 20025M   25281.77421760  .00001327  00000+0  10795-3 0  9998,2 45542  53.0544  68.5921 0001320  95.9300 264.1839 15.06395107302191
STARLINK-1372,45543,53.0542,0.000143,15.06400995,546.2181840005596,548.1988328159641,1 45543U 20025N   25281.74472829 -.00000279  00000+0  15619-6 0  9997,2 45543  53.0542  68.7244 0001430  86.6748 273.4405 15.06400995301288
STARLINK-1373,45544,53.0529,0.0001363,15.06397193,546.2762348213091,548.1640871833988,1 45544U 20025P   25281.76315561  .00000884  00000+0  78239-4 0  9995,2 45544  53.0529  68.6431 0001363  83.8212 276.2932 15.06397193302193
STARLINK-1294,45551,53.0521,0.0006336,15.56055662,394.79163694258114,403.37973352931203,1 45551U 20025W   25281.65365339  .00070306  00000+0  98816-3 0  9997,2 45551  53.0521  10.6021 0006336 327.3625  32.6993 15.56055662303003
STARLINK-1323,45553,53.0323,0.0005028,16.04255035,259.31126656176457,265.9892422247831,1 45553U 20025Y   25281.63423663  .00631216  20122-3  93978-3 0  9990,2 45553  53.0323 348.1893 0005028  37.9700 322.1684 16.04255035302010
